CZ-2C R/B               
1 52794U 22058K   25326.40614911  .00032299  00000+0  60488-3 0  9991
2 52794  50.1881 147.1338 0047781 114.4156 246.1808 15.47084262193481
CZ-2C R/B               
1 54039U 22132E   25325.99956056  .00028161  00000+0  44459-3 0  9993
2 54039  97.2945 321.8301 0023643 125.0244 235.3232 15.53147803173618
GSLV R/B                
1 54149U 22138AN  25326.12050728  .00003079  00000+0  27114-3 0  9998
2 54149  87.3846 202.3761 0021550 175.5930 184.5495 14.95977423167848
XRISM                   
1 57800U 23137A   25326.01455909  .00006780  00000+0  40059-3 0  9998
2 57800  31.0028 259.3278 0007657  34.1340 325.9789 15.10059073121493
ACS3                    
1 59588U 24077B   25325.51068514  .00027085  00000+0  23825-1 0  9994
2 59588  97.2974 285.8483 0069329  17.3855 342.9657 13.84103631 79205
